[Satellite]
VERSION=1.1
NAME=NOAA 14 [-]
NICKNAME=NOAA 14 [-]
TLE1=1 23455U 94089A   15055.55857755 -.00000017  00000-0  13812-4 0  9990
TLE2=2 23455  98.7577 139.3043 0009944  47.2102  66.5587 14.14024783 39619
